{
  "norad_id": 66235,
  "name": "STARLINK-35541",
  "history": [
    {
      "epoch": "2026-03-28T18:57:47.105856",
      "apogee_km": 475.7756234791823,
      "perigee_km": 474.5820499930569,
      "latitude_deg": 35.97653176858529,
      "longitude_deg": 159.35233984002843,
      "semi_major_axis_km": 6853.315836736119,
      "eccentricity": 8.708e-05,
      "inclination_deg": 53.1573,
      "raan_deg": 194.9833,
      "arg_perigee_deg": 66.5681,
      "mean_anomaly_deg": 293.5411,
      "mean_motion_rev_day": 15.30212135
    }
  ]
}